{
  "type": "FeatureCollection",
  "features": [
    {
      "type": "Feature",
      "properties": {
        "norad_id": 36585,
        "name": "GPS BIIF-1  (PRN 25)",
        "group": "gnss",
        "lat": -53.050996922592915,
        "lon": 109.21742640321261,
        "alt_km": 20511.347007429293,
        "timestamp": "2025-12-02T08:59:32.956187+00:00",
        "meta_object_name": "GPS BIIF-1  (PRN 25)",
        "meta_object_id": "2010-022A",
        "meta_epoch": "2025-12-01T06:27:39.458016",
        "meta_mean_motion": 2.00552516,
        "meta_eccentricity": 0.0125618,
        "meta_inclination": 54.3025,
        "meta_ra_of_asc_node": 216.5366,
        "meta_arg_of_pericenter": 64.9463,
        "meta_mean_anomaly": 117.0243,
        "meta_ephemeris_type": 0,
        "meta_classification_type": "U",
        "meta_norad_cat_id": 36585,
        "meta_element_set_no": 999,
        "meta_rev_at_epoch": 11362,
        "meta_bstar": 0,
        "meta_mean_motion_dot": 6e-07,
        "meta_mean_motion_ddot": 0,
        "tle_line1": "1 36585U 10022A   25335.26920669  .00000060  00000+0  00000+0 0  9994",
        "tle_line2": "2 36585  54.3025 216.5366 0125618  64.9463 117.0243  2.00552516113629"
      },
      "geometry": {
        "type": "Point",
        "coordinates": [
          109.21742640321261,
          -53.050996922592915
        ]
      }
    },
    {
      "type": "Feature",
      "properties": {
        "norad_id": 36828,
        "name": "BEIDOU-2 IGSO-1 (C06)",
        "group": "gnss",
        "lat": 24.879846565741342,
        "lon": -34.778350391958355,
        "alt_km": 35696.562502013396,
        "timestamp": "2025-12-02T08:59:32.956199+00:00",
        "meta_object_name": "BEIDOU-2 IGSO-1 (C06)",
        "meta_object_id": "2010-036A",
        "meta_epoch": "2025-12-01T10:54:26.819712",
        "meta_mean_motion": 1.00279202,
        "meta_eccentricity": 0.00512823,
        "meta_inclination": 54.2832,
        "meta_ra_of_asc_node": 164.751,
        "meta_arg_of_pericenter": 215.7518,
        "meta_mean_anomaly": 321.3962,
        "meta_ephemeris_type": 0,
        "meta_classification_type": "U",
        "meta_norad_cat_id": 36828,
        "meta_element_set_no": 999,
        "meta_rev_at_epoch": 5611,
        "meta_bstar": 0,
        "meta_mean_motion_dot": -1.7e-07,
        "meta_mean_motion_ddot": 0,
        "tle_line1": "1 36828U 10036A   25335.45447708 -.00000017  00000+0  00000+0 0  9991",
        "tle_line2": "2 36828  54.2832 164.7510 0051282 215.7518 321.3962  1.00279202 56116"
      },
      "geometry": {
        "type": "Point",
        "coordinates": [
          -34.778350391958355,
          24.879846565741342
        ]
      }
    },
    {
      "type": "Feature",
      "properties": {
        "norad_id": 37210,
        "name": "BEIDOU-2 G4 (C04)",
        "group": "gnss",
        "lat": -2.805001207529275,
        "lon": 6.567045060354511,
        "alt_km": 35801.259458252454,
        "timestamp": "2025-12-02T08:59:32.956211+00:00",
        "meta_object_name": "BEIDOU-2 G4 (C04)",
        "meta_object_id": "2010-057A",
        "meta_epoch": "2025-12-02T04:16:27.185088",
        "meta_mean_motion": 1.00271423,
        "meta_eccentricity": 0.0010835,
        "meta_inclination": 3.1562,
        "meta_ra_of_asc_node": 69.9634,
        "meta_arg_of_pericenter": 187.9304,
        "meta_mean_anomaly": 37.5769,
        "meta_ephemeris_type": 0,
        "meta_classification_type": "U",
        "meta_norad_cat_id": 37210,
        "meta_element_set_no": 999,
        "meta_rev_at_epoch": 5531,
        "meta_bstar": 0,
        "meta_mean_motion_dot": -9.1e-07,
        "meta_mean_motion_ddot": 0,
        "tle_line1": "1 37210U 10057A   25336.17809242 -.00000091  00000+0  00000+0 0  9997",
        "tle_line2": "2 37210   3.1562  69.9634 0010835 187.9304  37.5769  1.00271423 55319"
      },
      "geometry": {
        "type": "Point",
        "coordinates": [
          6.567045060354511,
          -2.805001207529275
        ]
      }
    },
    {
      "type": "Feature",
      "properties": {
        "norad_id": 37256,
        "name": "BEIDOU-2 IGSO-2 (C07)",
        "group": "gnss",
        "lat": 27.987718963093474,
        "lon": -57.11329141096806,
        "alt_km": 35985.47208656976,
        "timestamp": "2025-12-02T08:59:32.956224+00:00",
        "meta_object_name": "BEIDOU-2 IGSO-2 (C07)",
        "meta_object_id": "2010-068A",
        "meta_epoch": "2025-11-30T14:15:56.539296",
        "meta_mean_motion": 1.00290004,
        "meta_eccentricity": 0.0049401,
        "meta_inclination": 47.9109,
        "meta_ra_of_asc_node": 274.301,
        "meta_arg_of_pericenter": 216.3834,
        "meta_mean_anomaly": 260.0417,
        "meta_ephemeris_type": 0,
        "meta_classification_type": "U",
        "meta_norad_cat_id": 37256,
        "meta_element_set_no": 999,
        "meta_rev_at_epoch": 5480,
        "meta_bstar": 0,
        "meta_mean_motion_dot": -2.25e-06,
        "meta_mean_motion_ddot": 0,
        "tle_line1": "1 37256U 10068A   25334.59440439 -.00000225  00000+0  00000+0 0  9991",
        "tle_line2": "2 37256  47.9109 274.3010 0049401 216.3834 260.0417  1.00290004 54800"
      },
      "geometry": {
        "type": "Point",
        "coordinates": [
          -57.11329141096806,
          27.987718963093474
        ]
      }
    },
    {
      "type": "Feature",
      "properties": {
        "norad_id": 37384,
        "name": "BEIDOU-2 IGSO-3 (C08)",
        "group": "gnss",
        "lat": -62.06656289131445,
        "lon": -42.74865162486277,
        "alt_km": 35782.321955835934,
        "timestamp": "2025-12-02T08:59:32.956236+00:00",
        "meta_object_name": "BEIDOU-2 IGSO-3 (C08)",
        "meta_object_id": "2011-013A",
        "meta_epoch": "2025-11-29T21:04:05.094336",
        "meta_mean_motion": 1.00273417,
        "meta_eccentricity": 0.00356655,
        "meta_inclination": 62.1255,
        "meta_ra_of_asc_node": 42.0418,
        "meta_arg_of_pericenter": 186.0158,
        "meta_mean_anomaly": 264.7363,
        "meta_ephemeris_type": 0,
        "meta_classification_type": "U",
        "meta_norad_cat_id": 37384,
        "meta_element_set_no": 999,
        "meta_rev_at_epoch": 5366,
        "meta_bstar": 0,
        "meta_mean_motion_dot": -1.94e-06,
        "meta_mean_motion_ddot": 0,
        "tle_line1": "1 37384U 11013A   25333.87783674 -.00000194  00000+0  00000+0 0  9990",
        "tle_line2": "2 37384  62.1255  42.0418 0035665 186.0158 264.7363  1.00273417 53667"
      },
      "geometry": {
        "type": "Point",
        "coordinates": [
          -42.74865162486277,
          -62.06656289131445
        ]
      }
    },
    {
      "type": "Feature",
      "properties": {
        "norad_id": 37605,
        "name": "GSAT-8 (GAGAN/PRN 127)",
        "group": "gnss",
        "lat": 0.061755061153597225,
        "lon": -98.57924580131798,
        "alt_km": 35748.06564976652,
        "timestamp": "2025-12-02T08:59:32.956263+00:00",
        "meta_object_name": "GSAT-8 (GAGAN/PRN 127)",
        "meta_object_id": "2011-022A",
        "meta_epoch": "2025-12-02T03:46:25.790016",
        "meta_mean_motion": 1.00272305,
        "meta_eccentricity": 0.0008938,
        "meta_inclination": 1.6199,
        "meta_ra_of_asc_node": 84.307,
        "meta_arg_of_pericenter": 176.8932,
        "meta_mean_anomaly": 281.75,
        "meta_ephemeris_type": 0,
        "meta_classification_type": "U",
        "meta_norad_cat_id": 37605,
        "meta_element_set_no": 999,
        "meta_rev_at_epoch": 5124,
        "meta_bstar": 0,
        "meta_mean_motion_dot": 1.05e-06,
        "meta_mean_motion_ddot": 0,
        "tle_line1": "1 37605U 11022A   25336.15724294  .00000105  00000+0  00000+0 0  9994",
        "tle_line2": "2 37605   1.6199  84.3070 0008938 176.8932 281.7500  1.00272305 51240"
      },
      "geometry": {
        "type": "Point",
        "coordinates": [
          -98.57924580131798,
          0.061755061153597225
        ]
      }
    },
    {
      "type": "Feature",
      "properties": {
        "norad_id": 37763,
        "name": "BEIDOU-2 IGSO-4 (C09)",
        "group": "gnss",
        "lat": 37.77758915137048,
        "lon": -46.08333504110807,
        "alt_km": 35868.85891614771,
        "timestamp": "2025-12-02T08:59:32.956278+00:00",
        "meta_object_name": "BEIDOU-2 IGSO-4 (C09)",
        "meta_object_id": "2011-038A",
        "meta_epoch": "2025-11-28T12:37:32.473920",
        "meta_mean_motion": 1.00284857,
        "meta_eccentricity": 0.01486323,
        "meta_inclination": 54.5801,
        "meta_ra_of_asc_node": 167.4746,
        "meta_arg_of_pericenter": 230.1967,
        "meta_mean_anomaly": 313.2933,
        "meta_ephemeris_type": 0,
        "meta_classification_type": "U",
        "meta_norad_cat_id": 37763,
        "meta_element_set_no": 999,
        "meta_rev_at_epoch": 5263,
        "meta_bstar": 0,
        "meta_mean_motion_dot": 8.5e-07,
        "meta_mean_motion_ddot": 0,
        "tle_line1": "1 37763U 11038A   25332.52607030  .00000085  00000+0  00000+0 0  9998",
        "tle_line2": "2 37763  54.5801 167.4746 0148632 230.1967 313.2933  1.00284857 52633"
      },
      "geometry": {
        "type": "Point",
        "coordinates": [
          -46.08333504110807,
          37.77758915137048
        ]
      }
    }
  ]
}